{
    "links": {
        "self": "http://www.neowsapp.com/rest/v1/neo/3781882?api_key=iIulBulltgU6a56xZRHN4H3l9WmuAYTsLGpBGhQ2"
    },
    "id": "3781882",
    "neo_reference_id": "3781882",
    "name": "(2017 ST14)",
    "designation": "2017 ST14",
    "nasa_jpl_url": "http://ssd.jpl.nasa.gov/sbdb.cgi?sstr=3781882",
    "absolute_magnitude_h": 23.5,
    "estimated_diameter": {
        "kilometers": {
            "estimated_diameter_min": 0.0530340723,
            "estimated_diameter_max": 0.1185877909
        },
        "meters": {
            "estimated_diameter_min": 53.0340723319,
            "estimated_diameter_max": 118.5877908577
        },
        "miles": {
            "estimated_diameter_min": 0.0329538346,
            "estimated_diameter_max": 0.0736870142
        },
        "feet": {
            "estimated_diameter_min": 173.9963058693,
            "estimated_diameter_max": 389.0675677576
        }
    },
    "is_potentially_hazardous_asteroid": false,
    "close_approach_data": [
        {
            "close_approach_date": "2007-11-09",
            "close_approach_date_full": "2007-Nov-09 21:37",
            "epoch_date_close_approach": 1194644220000,
            "relative_velocity": {
                "kilometers_per_second": "7.0059381513",
                "kilometers_per_hour": "25221.3773445426",
                "miles_per_hour": "15671.5830505576"
            },
            "miss_distance": {
                "astronomical": "1.4732710721",
                "lunar": "573.1024470469",
                "kilometers": "220398214.318776427",
                "miles": "136949099.9635396126"
            },
            "orbiting_body": "Juptr"
        },
        {
            "close_approach_date": "2017-10-04",
            "close_approach_date_full": "2017-Oct-04 16:27",
            "epoch_date_close_approach": 1507134420000,
            "relative_velocity": {
                "kilometers_per_second": "17.3049969748",
                "kilometers_per_hour": "62297.9891091598",
                "miles_per_hour": "38709.5477328554"
            },
            "miss_distance": {
                "astronomical": "0.0409810006",
                "lunar": "15.9416092334",
                "kilometers": "6130670.400228722",
                "miles": "3809421.9414594836"
            },
            "orbiting_body": "Earth"
        },
        {
            "close_approach_date": "2019-09-06",
            "close_approach_date_full": "2019-Sep-06 03:53",
            "epoch_date_close_approach": 1567741980000,
            "relative_velocity": {
                "kilometers_per_second": "6.0483059228",
                "kilometers_per_hour": "21773.901322238",
                "miles_per_hour": "13529.4555188095"
            },
            "miss_distance": {
                "astronomical": "1.2682597525",
                "lunar": "493.3530437225",
                "kilometers": "189728957.580727175",
                "miles": "117892107.510998015"
            },
            "orbiting_body": "Juptr"
        },
        {
            "close_approach_date": "2021-09-11",
            "close_approach_date_full": "2021-Sep-11 09:48",
            "epoch_date_close_approach": 1631353680000,
            "relative_velocity": {
                "kilometers_per_second": "29.7198060543",
                "kilometers_per_hour": "106991.3017954433",
                "miles_per_hour": "66480.2341628409"
            },
            "miss_distance": {
                "astronomical": "0.42731573",
                "lunar": "166.22581897",
                "kilometers": "63925523.0254951",
                "miles": "39721478.09862838"
            },
            "orbiting_body": "Earth"
        },
        {
            "close_approach_date": "2031-07-15",
            "close_approach_date_full": "2031-Jul-15 17:32",
            "epoch_date_close_approach": 1941903120000,
            "relative_velocity": {
                "kilometers_per_second": "5.6573832537",
                "kilometers_per_hour": "20366.5797132189",
                "miles_per_hour": "12655.0006001387"
            },
            "miss_distance": {
                "astronomical": "1.1919316639",
                "lunar": "463.6614172571",
                "kilometers": "178310438.104995893",
                "miles": "110796968.5147456034"
            },
            "orbiting_body": "Juptr"
        }
    ],
    "orbital_data": {
        "orbit_id": "8",
        "orbit_determination_date": "2019-12-21 06:02:37",
        "first_observation_date": "2017-09-16",
        "last_observation_date": "2017-10-05",
        "data_arc_in_days": 19,
        "observations_used": 77,
        "orbit_uncertainty": "7",
        "minimum_orbit_intersection": ".0159385",
        "jupiter_tisserand_invariant": "3.072",
        "epoch_osculation": "2459000.5",
        "eccentricity": ".703114030478885",
        "semi_major_axis": "2.491170309440814",
        "inclination": "2.56272496330105",
        "ascending_node_longitude": "307.1511848281508",
        "orbital_period": "1436.162411031514",
        "perihelion_distance": ".7395935125605522",
        "perihelion_argument": "134.2485780438749",
        "aphelion_distance": "4.242747106321076",
        "perihelion_time": "2459510.318289013060",
        "mean_anomaly": "232.2048546634227",
        "mean_motion": ".2506680283753091",
        "equinox": "J2000",
        "orbit_class": {
            "orbit_class_type": "APO",
            "orbit_class_description": "Near-Earth asteroid orbits which cross the Earth’s orbit similar to that of 1862 Apollo",
            "orbit_class_range": "a (semi-major axis) > 1.0 AU; q (perihelion) < 1.017 AU"
        }
    },
    "is_sentry_object": false
}